start=new Date('2023-03-24T00:00:00.000Z').valueOf();
sats=[{"ECCENTRICITY":"0.00015310","TLE_LINE2":"2 53833  53.2156 120.8108 0001531 101.1085 259.0079 15.08851586 29507","OBJECT_TYPE":"PAYLOAD","COUNTRY_CODE":"US","MEAN_ELEMENT_THEORY":"SGP4","MEAN_ANOMALY":"259.0079","REF_FRAME":"TEME","EPOCH":"2023-03-23T19:01:58.235232","APOAPSIS":"540.769","FILE":"3868816","OBJECT_ID":"2022-114R","SITE":"AFETR","INCLINATION":"53.2156","MEAN_MOTION_DDOT":"0.0000000000000","NORAD_CAT_ID":"53833","RA_OF_ASC_NODE":"120.8108","LAUNCH_DATE":"2022-09-19","ARG_OF_PERICENTER":"101.1085","ELEMENT_SET_NO":"999","GP_ID":"228743134","PERIAPSIS":"538.651","CENTER_NAME":"EARTH","RCS_SIZE":"LARGE","MEAN_MOTION_DOT":"0.00003587","EPHEMERIS_TYPE":"0","SEMIMAJOR_AXIS":"6917.845","TLE_LINE1":"1 53833U 22114R   23082.79303513  .00003587  00000-0  24327-3 0  9992","REV_AT_EPOCH":"2950","CLASSIFICATION_TYPE":"U","MEAN_MOTION":"15.08851586","PERIOD":"95.437","TIME_SYSTEM":"UTC","DECAY_DATE":null,"OBJECT_NAME":"STARLINK-4771","BSTAR":"0.00024327000000"},{"CLASSIFICATION_TYPE":"U","MEAN_MOTION":"15.08849036","PERIOD":"95.437","TIME_SYSTEM":"UTC","DECAY_DATE":null,"OBJECT_NAME":"STARLINK-4737","BSTAR":"0.00009732700000","CENTER_NAME":"EARTH","RCS_SIZE":"LARGE","EPHEMERIS_TYPE":"0","MEAN_MOTION_DOT":"0.00001262","SEMIMAJOR_AXIS":"6917.853","TLE_LINE1":"1 53834U 22114S   23082.84084919  .00001262  00000-0  97327-4 0  9994","REV_AT_EPOCH":"2951","FILE":"3868816","OBJECT_ID":"2022-114S","APOAPSIS":"540.681","SITE":"AFETR","INCLINATION":"53.2160","MEAN_MOTION_DDOT":"0.0000000000000","NORAD_CAT_ID":"53834","RA_OF_ASC_NODE":"120.3981","LAUNCH_DATE":"2022-09-19","ARG_OF_PERICENTER":"93.8966","ELEMENT_SET_NO":"999","GP_ID":"228741404","PERIAPSIS":"538.755","ECCENTRICITY":"0.00013920","TLE_LINE2":"2 53834  53.2160 120.3981 0001392  93.8966 266.2186 15.08849036 29514","OBJECT_TYPE":"PAYLOAD","COUNTRY_CODE":"US","MEAN_ANOMALY":"266.2186","MEAN_ELEMENT_THEORY":"SGP4","REF_FRAME":"TEME","EPOCH":"2023-03-23T20:10:49.370016"},{"ELEMENT_SET_NO":"999","ARG_OF_PERICENTER":"89.6197","PERIAPSIS":"538.773","GP_ID":"228709564","LAUNCH_DATE":"2022-09-19","NORAD_CAT_ID":"53835","RA_OF_ASC_NODE":"122.5445","SITE":"AFETR","APOAPSIS":"540.667","FILE":"3868494","OBJECT_ID":"2022-114T","MEAN_MOTION_DDOT":"0.0000000000000","INCLINATION":"53.2164","EPOCH":"2023-03-23T09:19:02.865504","REF_FRAME":"TEME","COUNTRY_CODE":"US","MEAN_ANOMALY":"270.4952","MEAN_ELEMENT_THEORY":"SGP4","OBJECT_TYPE":"PAYLOAD","TLE_LINE2":"2 53835  53.2164 122.5445 0001369  89.6197 270.4952 15.08848439 29447","ECCENTRICITY":"0.00013690","BSTAR":"0.00020058000000","OBJECT_NAME":"STARLINK-4783","DECAY_DATE":null,"PERIOD":"95.437","TIME_SYSTEM":"UTC","MEAN_MOTION":"15.08848439","CLASSIFICATION_TYPE":"U","REV_AT_EPOCH":"2944","SEMIMAJOR_AXIS":"6917.855","TLE_LINE1":"1 53835U 22114T   23082.38822761  .00002906  00000-0  20058-3 0  9991","RCS_SIZE":"LARGE","MEAN_MOTION_DOT":"0.00002906","EPHEMERIS_TYPE":"0","CENTER_NAME":"EARTH"},{"MEAN_MOTION_DOT":"0.00001009","EPHEMERIS_TYPE":"0","RCS_SIZE":"LARGE","CENTER_NAME":"EARTH","REV_AT_EPOCH":"2957","TLE_LINE1":"1 53836U 22114U   23082.35975789  .00001009  00000-0  81491-4 0  9990","SEMIMAJOR_AXIS":"6917.869","MEAN_MOTION":"15.08843732","CLASSIFICATION_TYPE":"U","DECAY_DATE":null,"BSTAR":"0.00008149100000","OBJECT_NAME":"STARLINK-4778","TIME_SYSTEM":"UTC","PERIOD":"95.437","TLE_LINE2":"2 53836  53.2171 113.0910 0001476  92.6324 267.4837 15.08843732 29576","OBJECT_TYPE":"PAYLOAD","ECCENTRICITY":"0.00014760","REF_FRAME":"TEME","EPOCH":"2023-03-23T08:38:03.081696","MEAN_ANOMALY":"267.4837","MEAN_ELEMENT_THEORY":"SGP4","COUNTRY_CODE":"US","RA_OF_ASC_NODE":"113.0910","NORAD_CAT_ID":"53836","INCLINATION":"53.2171","MEAN_MOTION_DDOT":"0.0000000000000","FILE":"3868494","OBJECT_ID":"2022-114U","APOAPSIS":"540.755","SITE":"AFETR","GP_ID":"228707827","PERIAPSIS":"538.713","ARG_OF_PERICENTER":"92.6324","ELEMENT_SET_NO":"999","LAUNCH_DATE":"2022-09-19"},{"SEMIMAJOR_AXIS":"6917.852","TLE_LINE1":"1 53837U 22114V   23082.38085840  .00006982  00000-0  45621-3 0  9993","REV_AT_EPOCH":"2944","CENTER_NAME":"EARTH","EPHEMERIS_TYPE":"0","MEAN_MOTION_DOT":"0.00006982","RCS_SIZE":"LARGE","TIME_SYSTEM":"UTC","PERIOD":"95.437","OBJECT_NAME":"STARLINK-4776","BSTAR":"0.00045621000000","DECAY_DATE":null,"CLASSIFICATION_TYPE":"U","MEAN_MOTION":"15.08849282","MEAN_ELEMENT_THEORY":"SGP4","MEAN_ANOMALY":"276.9250","COUNTRY_CODE":"US","EPOCH":"2023-03-23T09:08:26.165760","REF_FRAME":"TEME","ECCENTRICITY":"0.00014150","OBJECT_TYPE":"PAYLOAD","TLE_LINE2":"2 53837  53.2144 122.5027 0001415  83.1903 276.9250 15.08849282 29448","LAUNCH_DATE":"2022-09-19","PERIAPSIS":"538.738","GP_ID":"228708077","ELEMENT_SET_NO":"999","ARG_OF_PERICENTER":"83.1903","MEAN_MOTION_DDOT":"0.0000000000000","INCLINATION":"53.2144","SITE":"AFETR","APOAPSIS":"540.696","FILE":"3868494","OBJECT_ID":"2022-114V","RA_OF_ASC_NODE":"122.5027","NORAD_CAT_ID":"53837"},{"REV_AT_EPOCH":"2957","SEMIMAJOR_AXIS":"6917.784","TLE_LINE1":"1 53838U 22114W   23082.35608477  .00022299  00000-0  14135-2 0  9992","RCS_SIZE":"LARGE","MEAN_MOTION_DOT":"0.00022299","EPHEMERIS_TYPE":"0","CENTER_NAME":"EARTH","DECAY_DATE":null,"OBJECT_NAME":"STARLINK-4773","BSTAR":"0.00141350000000","PERIOD":"95.436","TIME_SYSTEM":"UTC","MEAN_MOTION":"15.08871680","CLASSIFICATION_TYPE":"U","REF_FRAME":"TEME","EPOCH":"2023-03-23T08:32:45.724128","COUNTRY_CODE":"US","MEAN_ELEMENT_THEORY":"SGP4","MEAN_ANOMALY":"270.5320","TLE_LINE2":"2 53838  53.2156 113.0719 0001302  89.5822 270.5320 15.08871680 29579","OBJECT_TYPE":"PAYLOAD","ECCENTRICITY":"0.00013020","ARG_OF_PERICENTER":"89.5822","ELEMENT_SET_NO":"999","GP_ID":"228709327","PERIAPSIS":"538.748","LAUNCH_DATE":"2022-09-19","RA_OF_ASC_NODE":"113.0719","NORAD_CAT_ID":"53838","OBJECT_ID":"2022-114W","FILE":"3868494","APOAPSIS":"540.549","SITE":"AFETR","INCLINATION":"53.2156","MEAN_MOTION_DDOT":"0.0000000000000"},{"PERIAPSIS":"538.700","GP_ID":"228709065","ELEMENT_SET_NO":"999","ARG_OF_PERICENTER":"107.4685","LAUNCH_DATE":"2022-09-19","NORAD_CAT_ID":"53839","RA_OF_ASC_NODE":"113.1181","MEAN_MOTION_DDOT":"0.0000000000000","INCLINATION":"53.2172","SITE":"AFETR","FILE":"3868494","OBJECT_ID":"2022-114X","APOAPSIS":"540.764","EPOCH":"2023-03-23T08:43:21.101088","REF_FRAME":"TEME","MEAN_ANOMALY":"252.6471","MEAN_ELEMENT_THEORY":"SGP4","COUNTRY_CODE":"US","OBJECT_TYPE":"PAYLOAD","TLE_LINE2":"2 53839  53.2172 113.1181 0001492 107.4685 252.6471 15.08844278 29570","ECCENTRICITY":"0.00014920","OBJECT_NAME":"STARLINK-4784","BSTAR":"0.00002379100000","DECAY_DATE":null,"TIME_SYSTEM":"UTC","PERIOD":"95.437","MEAN_MOTION":"15.08844278","CLASSIFICATION_TYPE":"U","REV_AT_EPOCH":"2957","SEMIMAJOR_AXIS":"6917.867","TLE_LINE1":"1 53839U 22114X   23082.36343867  .00000091  00000-0  23791-4 0  9999","EPHEMERIS_TYPE":"0","MEAN_MOTION_DOT":"0.00000091","RCS_SIZE":"LARGE","CENTER_NAME":"EARTH"},{"OBJECT_TYPE":"PAYLOAD","TLE_LINE2":"2 53840  53.2169 110.9260 0001303  74.7407 285.3729 15.08850593 29105","ECCENTRICITY":"0.00013030","EPOCH":"2023-03-23T19:24:31.363776","REF_FRAME":"TEME","COUNTRY_CODE":"US","MEAN_ANOMALY":"285.3729","MEAN_ELEMENT_THEORY":"SGP4","RA_OF_ASC_NODE":"110.9260","NORAD_CAT_ID":"53840","SITE":"AFETR","APOAPSIS":"540.614","FILE":"3868761","OBJECT_ID":"2022-114Y","MEAN_MOTION_DDOT":"0.0000000000000","INCLINATION":"53.2169","ELEMENT_SET_NO":"999","ARG_OF_PERICENTER":"74.7407","PERIAPSIS":"538.812","GP_ID":"228716478","LAUNCH_DATE":"2022-09-19","RCS_SIZE":"LARGE","EPHEMERIS_TYPE":"0","MEAN_MOTION_DOT":"0.00002909","CENTER_NAME":"EARTH","REV_AT_EPOCH":"2910","SEMIMAJOR_AXIS":"6917.848","TLE_LINE1":"1 53840U 22114Y   23082.80869634  .00002909  00000-0  20071-3 0  9992","MEAN_MOTION":"15.08850593","CLASSIFICATION_TYPE":"U","OBJECT_NAME":"STARLINK-4766","BSTAR":"0.00020071000000","DECAY_DATE":null,"PERIOD":"95.437","TIME_SYSTEM":"UTC"},{"LAUNCH_DATE":"2022-09-19","ARG_OF_PERICENTER":"84.0922","ELEMENT_SET_NO":"999","GP_ID":"228708577","PERIAPSIS":"538.631","OBJECT_ID":"2022-114Z","FILE":"3868494","APOAPSIS":"540.814","SITE":"AFETR","INCLINATION":"53.2167","MEAN_MOTION_DDOT":"0.0000000000000","NORAD_CAT_ID":"53841","RA_OF_ASC_NODE":"113.0471","COUNTRY_CODE":"US","MEAN_ANOMALY":"276.0250","MEAN_ELEMENT_THEORY":"SGP4","REF_FRAME":"TEME","EPOCH":"2023-03-23T08:27:26.503776","ECCENTRICITY":"0.00015780","TLE_LINE2":"2 53841  53.2167 113.0471 0001578  84.0922 276.0250 15.08847394 29574","OBJECT_TYPE":"PAYLOAD","PERIOD":"95.437","TIME_SYSTEM":"UTC","DECAY_DATE":null,"BSTAR":"0.00021147000000","OBJECT_NAME":"STARLINK-4750","CLASSIFICATION_TYPE":"U","MEAN_MOTION":"15.08847394","TLE_LINE1":"1 53841U 22114Z   23082.35239009  .00003080  00000-0  21147-3 0  9996","SEMIMAJOR_AXIS":"6917.858","REV_AT_EPOCH":"2957","CENTER_NAME":"EARTH","RCS_SIZE":"LARGE","MEAN_MOTION_DOT":"0.00003080","EPHEMERIS_TYPE":"0"},{"COUNTRY_CODE":"US","MEAN_ELEMENT_THEORY":"SGP4","MEAN_ANOMALY":"265.9108","EPOCH":"2023-03-23T08:06:12.862368","REF_FRAME":"TEME","ECCENTRICITY":"0.00013350","OBJECT_TYPE":"PAYLOAD","TLE_LINE2":"2 53842  53.2168 112.9574 0001335  94.2037 265.9108 15.08849748 29573","LAUNCH_DATE":"2022-09-19","ELEMENT_SET_NO":"999","ARG_OF_PERICENTER":"94.2037","PERIAPSIS":"538.792","GP_ID":"228708828","SITE":"AFETR","APOAPSIS":"540.639","FILE":"3868494","OBJECT_ID":"2022-114AA","MEAN_MOTION_DDOT":"0.0000000000000","INCLINATION":"53.2168","RA_OF_ASC_NODE":"112.9574","NORAD_CAT_ID":"53842","TLE_LINE1":"1 53842U 22114AA  23082.33764887  .00002947  00000-0  20309-3 0  9992","SEMIMAJOR_AXIS":"6917.851","REV_AT_EPOCH":"2957","CENTER_NAME":"EARTH","RCS_SIZE":"LARGE","MEAN_MOTION_DOT":"0.00002947","EPHEMERIS_TYPE":"0","PERIOD":"95.437","TIME_SYSTEM":"UTC","OBJECT_NAME":"STARLINK-4754","BSTAR":"0.00020309000000","DECAY_DATE":null,"CLASSIFICATION_TYPE":"U","MEAN_MOTION":"15.08849748"}];
